0 SL-6 R/B(2)
1 19799U 89011D   13282.93359344 -.00000916  00000-0  81728-1 0  6092
2 19799 066.7571 271.6677 6857421 146.6161 352.3079 02.04170953146992
0 SL-6 R/B(2)
1 19799U 89011D   13285.39806163 -.00000840  00000-0  61618-1 0  6105
2 19799 066.7564 271.4212 6856866 146.5593 003.6898 02.04166868147049
0 SL-6 R/B(2)
1 19799U 89011D   13292.24801475  .00000098  00000-0 -74474-1 0  6118
2 19799 066.7578 270.7363 6855414 146.3990 358.1819 02.04155659147182
0 SL-6 R/B(2)
1 19799U 89011D   13295.18652689  .00000513  00000-0 -17393+0 0  6123
2 19799 066.7598 270.4415 6854698 146.3298 357.8380 02.04155947147249
